{"type": "FeatureCollection", "features": [ {"type": "Feature", "properties": {"norad_id": 33153, "name": "INTELSAT 25 (IS-25)", "group": "intelsat", "lat": -1.1863732234831792, "lon": 49.92530492893545, "alt_km": 35802.76920675653, "timestamp": "2025-12-17T23:38:06.530426+00:00", "meta": {"OBJECT_NAME": "INTELSAT 25 (IS-25)", "OBJECT_ID": "2008-034A", "EPOCH": "2025-12-17T09:45:06.538752", "MEAN_MOTION": 1.00270958, "ECCENTRICITY": 0.00048131, "INCLINATION": 2.2392, "RA_OF_ASC_NODE": 82.6002, "ARG_OF_PERICENTER": 184.5096, "MEAN_ANOMALY": 293.9529, "EPHEMERIS_TYPE": 0, "CLASSIFICATION_TYPE": "U", "NORAD_CAT_ID": 33153, "ELEMENT_SET_NO": 999, "REV_AT_EPOCH": 6387, "BSTAR": 0, "MEAN_MOTION_DOT": -2.01e-06, "MEAN_MOTION_DDOT": 0}, "tle": {"line1": "1 33153U 08034A   25351.40632568 -.00000201  00000+0  00000+0 0  9992", "line2": "2 33153   2.2392  82.6002 0004813 184.5096 293.9529  1.00270958 63877"}}, "geometry": {"type": "Point", "coordinates": [49.92530492893545, -1.1863732234831792]}}, {"type": "Feature", "properties": {"norad_id": 33376, "name": "GALAXY 19 (G-19)", "group": "intelsat", "lat": 0.019420699553232522, "lon": -15.604592774323892, "alt_km": 35783.431448572235, "timestamp": "2025-12-17T23:38:06.530438+00:00", "meta": {"OBJECT_NAME": "GALAXY 19 (G-19)", "OBJECT_ID": "2008-045A", "EPOCH": "2025-12-17T12:00:00.903744", "MEAN_MOTION": 1.00271051, "ECCENTRICITY": 0.00025154, "INCLINATION": 0.022, "RA_OF_ASC_NODE": 283.0681, "ARG_OF_PERICENTER": 347.0126, "MEAN_ANOMALY": 259.2988, "EPHEMERIS_TYPE": 0, "CLASSIFICATION_TYPE": "U", "NORAD_CAT_ID": 33376, "ELEMENT_SET_NO": 999, "REV_AT_EPOCH": 6308, "BSTAR": 0, "MEAN_MOTION_DOT": -1.14e-06, "MEAN_MOTION_DDOT": 0}, "tle": {"line1": "1 33376U 08045A   25351.50001046 -.00000114  00000+0  00000+0 0  9996", "line2": "2 33376   0.0220 283.0681 0002515 347.0126 259.2988  1.00271051 63089"}}, "geometry": {"type": "Point", "coordinates": [-15.604592774323892, 0.019420699553232522]}}, {"type": "Feature", "properties": {"norad_id": 35493, "name": "FM-5", "group": "intelsat", "lat": 0.022628021119506705, "lon": -4.7803714078822725, "alt_km": 35789.531747685956, "timestamp": "2025-12-17T23:38:06.530450+00:00", "meta": {"OBJECT_NAME": "FM-5", "OBJECT_ID": "2009-034A", "EPOCH": "2025-12-17T12:55:02.392896", "MEAN_MOTION": 1.00270579, "ECCENTRICITY": 8.258e-05, "INCLINATION": 0.019, "RA_OF_ASC_NODE": 293.2593, "ARG_OF_PERICENTER": 214.9962, "MEAN_ANOMALY": 45.775, "EPHEMERIS_TYPE": 0, "CLASSIFICATION_TYPE": "U", "NORAD_CAT_ID": 35493, "ELEMENT_SET_NO": 999, "REV_AT_EPOCH": 4482, "BSTAR": 0, "MEAN_MOTION_DOT": -1.75e-06, "MEAN_MOTION_DDOT": 0}, "tle": {"line1": "1 35493U 09034A   25351.53822214 -.00000175  00000+0  00000+0 0  9995", "line2": "2 35493   0.0190 293.2593 0000825 214.9962  45.7750  1.00270579 44824"}}, "geometry": {"type": "Point", "coordinates": [-4.7803714078822725, 0.022628021119506705]}}, {"type": "Feature", "properties": {"norad_id": 36097, "name": "INTELSAT 14 (IS-14)", "group": "intelsat", "lat": 0.032738524727472, "lon": 36.40576422225804, "alt_km": 35791.31940267413, "timestamp": "2025-12-17T23:38:06.530462+00:00", "meta": {"OBJECT_NAME": "INTELSAT 14 (IS-14)", "OBJECT_ID": "2009-064A", "EPOCH": "2025-12-17T09:41:14.408736", "MEAN_MOTION": 1.00272181, "ECCENTRICITY": 0.00024378, "INCLINATION": 0.0122, "RA_OF_ASC_NODE": 320.5226, "ARG_OF_PERICENTER": 315.1724, "MEAN_ANOMALY": 270.908, "EPHEMERIS_TYPE": 0, "CLASSIFICATION_TYPE": "U", "NORAD_CAT_ID": 36097, "ELEMENT_SET_NO": 999, "REV_AT_EPOCH": 5878, "BSTAR": 0, "MEAN_MOTION_DOT": -2.49e-06, "MEAN_MOTION_DDOT": 0}, "tle": {"line1": "1 36097U 09064A   25351.40363899 -.00000249  00000+0  00000+0 0  9996", "line2": "2 36097   0.0122 320.5226 0002437 315.1724 270.9080  1.00272181 58787"}}, "geometry": {"type": "Point", "coordinates": [36.40576422225804, 0.032738524727472]}}, {"type": "Feature", "properties": {"norad_id": 36106, "name": "INTELSAT 15 (IS-15)", "group": "intelsat", "lat": -0.002377326273034487, "lon": 166.50065261897532, "alt_km": 35789.460460162976, "timestamp": "2025-12-17T23:38:06.530474+00:00", "meta": {"OBJECT_NAME": "INTELSAT 15 (IS-15)", "OBJECT_ID": "2009-067A", "EPOCH": "2025-12-17T13:43:50.220192", "MEAN_MOTION": 1.00271611, "ECCENTRICITY": 0.00021676, "INCLINATION": 0.0171, "RA_OF_ASC_NODE": 343.1214, "ARG_OF_PERICENTER": 294.639, "MEAN_ANOMALY": 99.8011, "EPHEMERIS_TYPE": 0, "CLASSIFICATION_TYPE": "U", "NORAD_CAT_ID": 36106, "ELEMENT_SET_NO": 999, "REV_AT_EPOCH": 3940, "BSTAR": 0, "MEAN_MOTION_DOT": -1.6e-06, "MEAN_MOTION_DDOT": 0}, "tle": {"line1": "1 36106U 09067A   25351.57210903 -.00000160  00000+0  00000+0 0  9997", "line2": "2 36106   0.0171 343.1214 0002167 294.6390  99.8011  1.00271611 39407"}}, "geometry": {"type": "Point", "coordinates": [166.50065261897532, -0.002377326273034487]}}, {"type": "Feature", "properties": {"norad_id": 36131, "name": "DIRECTV 12", "group": "intelsat", "lat": -0.014359067279995773, "lon": -21.341480100071824, "alt_km": 35783.65259983537, "timestamp": "2025-12-17T23:38:06.530485+00:00", "meta": {"OBJECT_NAME": "DIRECTV 12", "OBJECT_ID": "2009-075A", "EPOCH": "2025-12-17T12:02:07.721664", "MEAN_MOTION": 1.00273321, "ECCENTRICITY": 4.896e-05, "INCLINATION": 0.0482, "RA_OF_ASC_NODE": 155.1358, "ARG_OF_PERICENTER": 195.2953, "MEAN_ANOMALY": 173.7663, "EPHEMERIS_TYPE": 0, "CLASSIFICATION_TYPE": "U", "NORAD_CAT_ID": 36131, "ELEMENT_SET_NO": 999, "REV_AT_EPOCH": 4473, "BSTAR": 0, "MEAN_MOTION_DOT": -7.9e-07, "MEAN_MOTION_DDOT": 0}, "tle": {"line1": "1 36131U 09075A   25351.50147826 -.00000079  00000+0  00000+0 0  9999", "line2": "2 36131   0.0482 155.1358 0000489 195.2953 173.7663  1.00273321 44733"}}, "geometry": {"type": "Point", "coordinates": [-21.341480100071824, -0.014359067279995773]}}, {"type": "Feature", "properties": {"norad_id": 36397, "name": "INTELSAT 16 (IS-16)", "group": "intelsat", "lat": 0.008694949749774333, "lon": 5.195410504570328, "alt_km": 35787.11461425797, "timestamp": "2025-12-17T23:38:06.530497+00:00", "meta": {"OBJECT_NAME": "INTELSAT 16 (IS-16)", "OBJECT_ID": "2010-006A", "EPOCH": "2025-12-17T12:57:47.130048", "MEAN_MOTION": 1.00272497, "ECCENTRICITY": 0.00018317, "INCLINATION": 0.0098, "RA_OF_ASC_NODE": 356.6253, "ARG_OF_PERICENTER": 269.7654, "MEAN_ANOMALY": 298.2757, "EPHEMERIS_TYPE": 0, "CLASSIFICATION_TYPE": "U", "NORAD_CAT_ID": 36397, "ELEMENT_SET_NO": 999, "REV_AT_EPOCH": 5783, "BSTAR": 0, "MEAN_MOTION_DOT": -2.2e-06, "MEAN_MOTION_DDOT": 0}, "tle": {"line1": "1 36397U 10006A   25351.54012882 -.00000220  00000+0  00000+0 0  9994", "line2": "2 36397   0.0098 356.6253 0001831 269.7654 298.2757  1.00272497 57834"}}, "geometry": {"type": "Point", "coordinates": [5.195410504570328, 0.008694949749774333]}}, {"type": "Feature", "properties": {"norad_id": 37185, "name": "XM-5", "group": "intelsat", "lat": 0.04183005510693468, "lon": -33.82762777088532, "alt_km": 35794.120398177365, "timestamp": "2025-12-17T23:38:06.530509+00:00", "meta": {"OBJECT_NAME": "XM-5", "OBJECT_ID": "2010-053A", "EPOCH": "2025-12-17T14:05:26.297088", "MEAN_MOTION": 1.00270586, "ECCENTRICITY": 0.000184, "INCLINATION": 0.0634, "RA_OF_ASC_NODE": 272.4688, "ARG_OF_PERICENTER": 230.1399, "MEAN_ANOMALY": 40.0192, "EPHEMERIS_TYPE": 0, "CLASSIFICATION_TYPE": "U", "NORAD_CAT_ID": 37185, "ELEMENT_SET_NO": 999, "REV_AT_EPOCH": 5566, "BSTAR": 0, "MEAN_MOTION_DOT": 2e-08, "MEAN_MOTION_DDOT": 0}, "tle": {"line1": "1 37185U 10053A   25351.58710992  .00000002  00000+0  00000+0 0  9990", "line2": "2 37185   0.0634 272.4688 0001840 230.1399  40.0192  1.00270586 55663"}}, "geometry": {"type": "Point", "coordinates": [-33.82762777088532, 0.04183005510693468]}}, {"type": "Feature", "properties": {"norad_id": 37238, "name": "INTELSAT 17 (IS-17)", "group": "intelsat", "lat": -0.0004011689610954368, "lon": 147.34983167426515, "alt_km": 35793.85754357758, "timestamp": "2025-12-17T23:38:06.530521+00:00", "meta": {"OBJECT_NAME": "INTELSAT 17 (IS-17)", "OBJECT_ID": "2010-065B", "EPOCH": "2025-12-17T13:38:20.745888", "MEAN_MOTION": 1.00270595, "ECCENTRICITY": 0.00026239, "INCLINATION": 0.0042, "RA_OF_ASC_NODE": 89.1567, "ARG_OF_PERICENTER": 190.5605, "MEAN_ANOMALY": 77.3173, "EPHEMERIS_TYPE": 0, "CLASSIFICATION_TYPE": "U", "NORAD_CAT_ID": 37238, "ELEMENT_SET_NO": 999, "REV_AT_EPOCH": 5142, "BSTAR": 0, "MEAN_MOTION_DOT": 2.3e-07, "MEAN_MOTION_DDOT": 0}, "tle": {"line1": "1 37238U 10065B   25351.56829567  .00000023  00000+0  00000+0 0  9992", "line2": "2 37238   0.0042  89.1567 0002623 190.5605  77.3173  1.00270595 51425"}}, "geometry": {"type": "Point", "coordinates": [147.34983167426515, -0.0004011689610954368]}}, {"type": "Feature", "properties": {"norad_id": 37392, "name": "INTELSAT 28 (IS-28)", "group": "intelsat", "lat": -0.7484720043415429, "lon": 49.72373308294337, "alt_km": 35798.411364074396, "timestamp": "2025-12-17T23:38:06.530532+00:00", "meta": {"OBJECT_NAME": "INTELSAT 28 (IS-28)", "OBJECT_ID": "2011-016A", "EPOCH": "2025-12-17T09:45:06.538752", "MEAN_MOTION": 1.00270819, "ECCENTRICITY": 0.00036896, "INCLINATION": 1.3361, "RA_OF_ASC_NODE": 85.0047, "ARG_OF_PERICENTER": 185.1218, "MEAN_ANOMALY": 290.7545, "EPHEMERIS_TYPE": 0, "CLASSIFICATION_TYPE": "U", "NORAD_CAT_ID": 37392, "ELEMENT_SET_NO": 999, "REV_AT_EPOCH": 5146, "BSTAR": 0, "MEAN_MOTION_DOT": -2.01e-06, "MEAN_MOTION_DDOT": 0}, "tle": {"line1": "1 37392U 11016A   25351.40632568 -.00000201  00000+0  00000+0 0  9995", "line2": "2 37392   1.3361  85.0047 0003689 185.1218 290.7545  1.00270819 51462"}}, "geometry": {"type": "Point", "coordinates": [49.72373308294337, -0.7484720043415429]}}]}